OBJECT_NAME,OBJECT_ID,EPOCH,MEAN_MOTION,ECCENTRICITY,INCLINATION,RA_OF_ASC_NODE,ARG_OF_PERICENTER,MEAN_ANOMALY,EPHEMERIS_TYPE,CLASSIFICATION_TYPE,NORAD_CAT_ID,ELEMENT_SET_NO,REV_AT_EPOCH,BSTAR,MEAN_MOTION_DOT,MEAN_MOTION_DDOT
RESURS-DK 1,2006-021A,2026-07-09T05:53:23.533728,15.13306588,.00067816,69.9328,282.4503,277.8398,82.1999,0,U,29228,999,10591,.74140722E-4,.1215E-4,0
CZ-4B R/B,2006-046C,2026-07-09T01:46:10.826688,15.17949695,.00319855,97.5443,234.6133,203.5221,156.4552,0,U,29507,999,7845,.14663082E-3,.2944E-4,0
CZ-2C R/B,2007-010B,2026-07-09T06:01:40.747584,14.20280908,.00579085,98.4114,297.5248,301.3979,58.1542,0,U,31114,999,99697,.3951846E-4,.44E-6,0
COSMO-SKYMED 1,2007-023A,2026-07-09T20:36:40.511808,14.97204164,.000106,97.8844,22.9064,95.8959,264.2383,0,U,31598,999,3318,.13118E-3,.1457E-4,0
COSMOS 2428,2007-029A,2026-07-09T07:16:03.203904,14.12931440,.00071728,70.9381,308.0425,92.6802,267.5140,0,U,31792,999,98127,.11159898E-3,.16E-5,0
SL-16 R/B,2007-029B,2026-07-09T05:34:45.611904,14.14850784,.00021278,70.9752,276.8873,257.7054,132.9035,0,U,31793,999,98256,-.37305243E-4,-.12E-5,0
KORONAS-FOTON,2009-003A,2026-07-09T19:08:40.097184,15.46211676,.0012476,82.4294,148.6652,78.8517,281.4133,0,U,33504,999,96459,.19314E-3,.9555E-4,0
CZ-2C R/B,2011-030B,2026-07-08T20:31:18.253632,14.81523817,.00511955,97.8665,144.8521,317.3058,95.9852,0,U,37731,999,80803,.10754071E-3,.807E-5,0
H-2A R/B,2012-025E,2026-07-09T13:36:24.360768,14.95827322,.0042245,98.4848,167.5608,274.1610,85.4781,0,U,38341,999,76643,.14637E-3,.1592E-4,0
SHIJIAN-16 (SJ-16),2013-057A,2026-07-09T19:51:14.770656,14.92660183,.0016004,74.9735,313.8015,177.6412,182.4855,0,U,39358,999,68972,.81858E-4,.816E-5,0
SL-4 R/B,2014-021B,2026-07-09T03:51:35.897760,15.42400194,.00900641,51.6056,103.0868,186.3192,173.6665,0,U,39679,999,67500,.17579085E-3,.8482E-4,0
ALOS-2,2014-029A,2026-07-09T20:43:53.170176,14.79474132,.0001634,97.9220,287.7038,91.0180,269.1219,0,U,39766,999,65493,.86155E-4,.592E-5,0
YAOGAN-29,2015-069A,2026-07-09T20:19:36.244128,14.83104574,.0001155,98.0026,219.5144,21.9129,338.2134,0,U,41038,999,57398,.65523E-4,.48E-5,0
ASTRO-H (HITOMI),2016-012A,2026-07-09T07:15:49.010112,15.10617364,.00095449,30.9998,291.3509,115.8775,244.2848,0,U,41337,999,57063,.10649857E-3,.1901E-4,0
HXMT (HUIYAN),2017-034A,2026-07-09T19:50:30.562368,15.18658088,.0032696,43.0148,56.9617,288.0449,71.6838,0,U,42758,999,50110,.17131E-3,.3419E-4,0
SAOCOM 1A,2018-076A,2026-07-09T19:40:09.924384,14.82147351,.0001493,97.8893,17.2396,84.7856,275.3528,0,U,43641,999,41945,.11929E-3,.897E-5,0
H-2A R/B,2018-084L,2026-07-09T14:14:20.167872,15.46050581,.0020792,98.8547,74.3921,321.3240,38.6514,0,U,43682,999,42458,.31968E-3,.15641E-3,0
SAOCOM 1B,2020-059A,2026-07-09T20:25:09.340320,14.82154672,.0001549,97.8897,16.3664,80.9928,279.1461,0,U,46265,999,31684,-.47758E-5,-.9E-6,0
CSS (TIANHE),2021-035A,2026-07-09T15:19:07.756608,15.58017701,.0002646,41.4689,185.5127,282.7023,77.3519,0,U,48274,999,29667,.16026E-4,.907E-5,0
COSMOS 2550,2021-056A,2026-07-09T20:19:36.716736,15.33790535,.0008432,67.1431,31.3617,271.9793,88.0395,0,U,48865,999,28219,.2731E-4,.706E-5,0
CZ-2C R/B,2022-058K,2026-07-08T23:36:46.798272,15.63480368,.00307187,50.1859,49.9701,356.8972,3.1808,0,U,52794,999,22905,.33492133E-3,.31975E-3,0
CZ-2C R/B,2022-132E,2026-07-08T23:23:09.703104,15.74351437,.00107135,97.2895,198.0134,9.4182,350.7282,0,U,54039,999,20937,.35231701E-3,.51033E-3,0
GSLV R/B,2022-138AN,2026-07-09T05:44:16.141344,14.97366438,.002404,87.3814,125.5791,71.8269,288.5577,0,U,54149,999,20211,.18438878E-3,.2182E-4,0
XRISM,2023-137A,2026-07-09T05:33:28.918944,15.12644869,.00078263,31.0009,216.7875,186.6493,173.4043,0,U,57800,999,15620,.13552017E-3,.2527E-4,0
ACS3,2024-077B,2026-07-09T05:32:14.493984,13.95365546,.01164986,97.1733,104.1292,43.6245,317.4061,0,U,59588,999,11111,.16933884E-1,.24318E-3,0
SPACEMOBILE-003,2024-163A,2026-07-09T04:00:35.094240,15.20787211,.00054559,52.9653,208.3642,177.5789,182.5233,0,U,61045,999,10111,.36598881E-4,.49E-5,0
SPACEMOBILE-005,2024-163B,2026-07-09T17:48:29.962080,15.20763652,.0008751,52.9802,205.6616,178.6787,181.4232,0,U,61046,999,10119,.21851E-3,.4552E-4,0
SPACEMOBILE-001,2024-163C,2026-07-09T17:46:15.724128,15.20815426,.0007489,52.9743,205.3844,177.9514,182.1512,0,U,61047,999,10119,.46335E-4,.707E-5,0
SPACEMOBILE-002,2024-163D,2026-07-09T06:20:47.253120,15.20861316,.00066401,52.9763,207.6126,175.9238,184.1811,0,U,61048,999,10112,.29469552E-3,.6272E-4,0
SPACEMOBILE-004,2024-163E,2026-07-09T13:48:46.986048,15.20814564,.0008114,52.9654,205.9666,207.5207,152.5359,0,U,61049,999,10117,-.61665E-3,-.14088E-3,0
