RESURS-DK 1             
1 29228U 06021A   26190.24541127  .00001215  00000+0  74141-4 0  9995
2 29228  69.9328 282.4503 0006781 277.8398  82.1999 15.13306588105916
CZ-4B R/B               
1 29507U 06046C   26190.07373642  .00002944  00000+0  14663-3 0  9990
2 29507  97.5443 234.6133 0031985 203.5221 156.4552 15.17949695 78458
CZ-2C R/B               
1 31114U 07010B   26190.25116606  .00000044  00000+0  39518-4 0  9990
2 31114  98.4114 297.5248 0057908 301.3979  58.1542 14.20280908996976
COSMO-SKYMED 1          
1 31598U 07023A   26190.85880222  .00001457  00000+0  13118-3 0  9994
2 31598  97.8844  22.9064 0001060  95.8959 264.2383 14.97204164 33184
COSMOS 2428             
1 31792U 07029A   26190.30281486  .00000160  00000+0  11160-3 0  9998
2 31792  70.9381 308.0425 0007172  92.6802 267.5140 14.12931440981279
SL-16 R/B               
1 31793U 07029B   26190.23247236 -.00000120  00000+0 -37305-4 0  9994
2 31793  70.9752 276.8873 0002127 257.7054 132.9035 14.14850784982563
KORONAS-FOTON           
1 33504U 09003A   26190.79768631  .00009555  00000+0  19314-3 0  9996
2 33504  82.4294 148.6652 0012476  78.8517 281.4133 15.46211676964598
CZ-2C R/B               
1 37731U 11030B   26189.85507238  .00000807  00000+0  10754-3 0  9994
2 37731  97.8665 144.8521 0051195 317.3058  95.9852 14.81523817808034
H-2A R/B                
1 38341U 12025E   26190.56694862  .00001592  00000+0  14637-3 0  9993
2 38341  98.4848 167.5608 0042245 274.1610  85.4781 14.95827322766435
SHIJIAN-16 (SJ-16)      
1 39358U 13057A   26190.82725429  .00000816  00000+0  81858-4 0  9999
2 39358  74.9735 313.8015 0016004 177.6412 182.4855 14.92660183689720
SL-4 R/B                
1 39679U 14021B   26190.16083215  .00008482  00000+0  17579-3 0  9999
2 39679  51.6056 103.0868 0090064 186.3192 173.6665 15.42400194675006
ALOS-2                  
1 39766U 14029A   26190.86380984  .00000592  00000+0  86155-4 0  9995
2 39766  97.9220 287.7038 0001634  91.0180 269.1219 14.79474132654939
YAOGAN-29               
1 41038U 15069A   26190.84694727  .00000480  00000+0  65523-4 0  9998
2 41038  98.0026 219.5144 0001155  21.9129 338.2134 14.83104574573988
ASTRO-H (HITOMI)        
1 41337U 16012A   26190.30265058  .00001901  00000+0  10650-3 0  9990
2 41337  30.9998 291.3509 0009544 115.8775 244.2848 15.10617364570630
HXMT (HUIYAN)           
1 42758U 17034A   26190.82674262  .00003419  00000+0  17131-3 0  9998
2 42758  43.0148  56.9617 0032696 288.0449  71.6838 15.18658088501103
SAOCOM 1A               
1 43641U 18076A   26190.81955931  .00000897  00000+0  11929-3 0  9997
2 43641  97.8893  17.2396 0001493  84.7856 275.3528 14.82147351419458
H-2A R/B                
1 43682U 18084L   26190.59328898  .00015641  00000+0  31968-3 0  9990
2 43682  98.8547  74.3921 0020792 321.3240  38.6514 15.46050581424582
SAOCOM 1B               
1 46265U 20059A   26190.85080255 -.00000090  00000+0 -47758-5 0  9996
2 46265  97.8897  16.3664 0001549  80.9928 279.1461 14.82154672316846
CSS (TIANHE)            
1 48274U 21035A   26190.63828422  .00000907  00000+0  16026-4 0  9993
2 48274  41.4689 185.5127 0002646 282.7023  77.3519 15.58017701296677
COSMOS 2550             
1 48865U 21056A   26190.84695274  .00000706  00000+0  27310-4 0  9997
2 48865  67.1431  31.3617 0008432 271.9793  88.0395 15.33790535282197
CZ-2C R/B               
1 52794U 22058K   26189.98387498  .00031975  00000+0  33492-3 0  9994
2 52794  50.1859  49.9701 0030718 356.8972   3.1808 15.63480368229058
CZ-2C R/B               
1 54039U 22132E   26189.97441786  .00051033  00000+0  35232-3 0  9992
2 54039  97.2895 198.0134 0010713   9.4182 350.7282 15.74351437209373
GSLV R/B                
1 54149U 22138AN  26190.23907571  .00002182  00000+0  18439-3 0  9991
2 54149  87.3814 125.5791 0024040  71.8269 288.5577 14.97366438202118
XRISM                   
1 57800U 23137A   26190.23158471  .00002527  00000+0  13552-3 0  9999
2 57800  31.0009 216.7875 0007826 186.6493 173.4043 15.12644869156203
ACS3                    
1 59588U 24077B   26190.23072331  .00024318  00000+0  16934-1 0  9995
2 59588  97.1733 104.1292 0116498  43.6245 317.4061 13.95365546111113
SPACEMOBILE-003         
1 61045U 24163A   26190.16707285  .00000490  00000+0  36599-4 0  9994
2 61045  52.9653 208.3642 0005455 177.5789 182.5233 15.20787211101118
SPACEMOBILE-005         
1 61046U 24163B   26190.74201345  .00004552  00000+0  21851-3 0  9992
2 61046  52.9802 205.6616 0008751 178.6787 181.4232 15.20763652101196
SPACEMOBILE-001         
1 61047U 24163C   26190.74045977  .00000707  00000+0  46335-4 0  9993
2 61047  52.9743 205.3844 0007489 177.9514 182.1512 15.20815426101194
SPACEMOBILE-002         
1 61048U 24163D   26190.26443580  .00006272  00000+0  29470-3 0  9996
2 61048  52.9763 207.6126 0006640 175.9238 184.1811 15.20861316101120
SPACEMOBILE-004         
1 61049U 24163E   26190.57554382 -.00014088  00000+0 -61665-3 0  9992
2 61049  52.9654 205.9666 0008114 207.5207 152.5359 15.20814564101170
